[{"OBJECT_NAME":"STARLINK-6081","OBJECT_ID":"2023-046R","EPOCH":"2026-03-08T15:14:43.084896","MEAN_MOTION":15.02697277,"ECCENTRICITY":5.782e-5,"INCLINATION":43.0031,"RA_OF_ASC_NODE":164.6545,"ARG_OF_PERICENTER":245.9294,"MEAN_ANOMALY":114.1488,"EPHEMERIS_TYPE":0,"CLASSIFICATION_TYPE":"U","NORAD_CAT_ID":56108,"ELEMENT_SET_NO":999,"REV_AT_EPOCH":16190,"BSTAR":0.0013507201,"MEAN_MOTION_DOT":0.00018168,"MEAN_MOTION_DDOT":0},{"OBJECT_NAME":"IRIDIUM 33 DEB","OBJECT_ID":"1997-051VK","EPOCH":"2026-03-08T19:51:10.655424","MEAN_MOTION":15.00290565,"ECCENTRICITY":0.00168472,"INCLINATION":86.319,"RA_OF_ASC_NODE":266.0445,"ARG_OF_PERICENTER":92.2879,"MEAN_ANOMALY":268.0282,"EPHEMERIS_TYPE":0,"CLASSIFICATION_TYPE":"U","NORAD_CAT_ID":36028,"ELEMENT_SET_NO":999,"REV_AT_EPOCH":88413,"BSTAR":0.0028450528,"MEAN_MOTION_DOT":0.00035903,"MEAN_MOTION_DDOT":0}]
